CIC_OEM_VERS = 2.0
CREATION_DATE = 2025-03-12T09:28:13.585739
ORIGINATOR = ISAE-SUPAERO


META_START
OBJECT_NAME = RED1
OBJECT_ID = RED1
CENTER_NAME = Earth
REF_FRAME = EME2000
TIME_SYSTEM = UTC
START_TIME = 2025-03-12T17:22:56.466
USEABLE_START_TIME = 2025-03-12T17:22:56.466
USEABLE_STOP_TIME = 2025-03-12T23:58:56.466
STOP_TIME = 2025-03-12T23:58:56.466
INTERPOLATION = lagrange
INTERPOLATION_DEGREE = 5
META_STOP


60746 62576.466 24622.144 1622.0863000000002 4014.8045 -0.69160518 1.4731950999999999 3.6462858000000002
60746 62666.466 24557.346 1754.5009 4342.5421 -0.74806066 1.4693197 3.6366917
60746 62756.466 24487.473 1886.5531 4669.3824 -0.80436385 1.4651406 3.6263459
60746 62846.466 24412.552 2018.2163 4995.259599999999 -0.8605050700000001 1.4606577 3.6152478
60746 62936.466 24332.586 2149.4624 5320.1045 -0.9164687699999999 1.4558729000000001 3.6034023000000004
60746 63026.466 24247.593 2280.2643 5643.849700000001 -0.9722429300000001 1.4507872 3.5908121000000004
60746 63116.466 24157.589 2410.5951 5966.428400000001 -1.027816 1.4454017 3.5774797
60746 63206.466 24062.592 2540.4277 6287.7739 -1.0831765 1.4397176 3.5634079
60746 63296.466 23962.624 2669.7353 6607.8197 -1.1383130000000001 1.4337360000000001 3.5485997000000005
60746 63386.466 23857.703 2798.4912999999997 6926.4998 -1.1932140999999998 1.4274581000000002 3.533058
60746 63476.466 23747.853 2926.669 7243.7483 -1.2478685 1.4208853 3.5167862
60746 63566.466 23633.095 3054.2418 7559.4995 -1.3022648 1.4140189 3.4997875
60746 63656.466 23513.453 3181.1836000000003 7873.6883 -1.3563916999999999 1.4068603000000002 3.4820655
60746 63746.466 23388.952 3307.468 8186.2497 -1.4102383 1.3994110000000002 3.4636239
60746 63836.466 23259.619 3433.0688999999998 8497.1192 -1.4637931000000002 1.3916724999999999 3.4444665
60746 63926.466 23125.479 3557.9604 8806.2324 -1.5170454 1.3836465 3.4245973
60746 64016.466 22986.56 3682.1167 9113.5254 -1.5699839 1.3753347000000002 3.4040203
60746 64106.466 22842.891 3805.5121000000004 9418.9349 -1.6225978 1.3667386 3.3827398
60746 64196.466 22694.503 3928.1212 9722.3976 -1.6748761 1.3578602000000002 3.3607603
60746 64286.466 22541.424 4049.9185 10023.851 -1.7268082 1.3487012 3.3380863
60746 64376.466 22383.688000000002 4170.879 10323.232 -1.7783833 1.3392636 3.3147224
60746 64466.466 22221.326 4290.9777 10620.48 -1.8295906 1.3295492999999998 3.2906736000000003
60746 64556.466 22054.373 4410.1896 10915.533 -1.8804197 1.3195603 3.2659447
60746 64646.466 21882.862 4528.4902999999995 11208.33 -1.9308599 1.3092986000000002 3.2405410000000003
60746 64736.466 21706.83 4645.8553 11498.811 -1.980901 1.2987665 3.2144676
60746 64826.466 21526.312 4762.2603 11786.914 -2.0305325 1.287966 3.18773
60746 64916.466 21341.347 4877.6812 12072.582 -2.0797442999999998 1.2768995 3.1603337000000002
60746 65006.466 21151.971 4992.0942000000005 12355.755000000001 -2.1285261 1.2655691 3.1322843
60746 65096.466 20958.225000000002 5105.4758 12636.374 -2.1768678 1.2539774 3.1035877000000003
60746 65186.466 20760.149 5217.8024000000005 12914.381 -2.2247595000000002 1.2421265000000001 3.0742499
60746 65276.466 20557.782 5329.0509 13189.720000000001 -2.2721913 1.2300191 3.0442768
60746 65366.466 20351.168 5439.198200000001 13462.332 -2.3191533 1.2176575 3.0136747
60746 65456.466 20140.349000000002 5548.2217 13732.163 -2.365636 1.2050444 2.9824499
60746 65546.466 19925.368000000002 5656.0987000000005 13999.155 -2.4116296000000004 1.1921823999999999 2.9506089
60746 65636.466 19706.271 5762.8071 14263.254 -2.4571247 1.1790741 2.9181581999999997
60746 65726.466 19483.101 5868.3248 14524.405 -2.5021119 1.1657222999999999 2.8851046
60746 65816.466 19255.906 5972.629900000001 14782.555 -2.5465819 1.1521297 2.8514549000000002
60746 65906.466 19024.732 6075.701 15037.65 -2.5905255 1.138299 2.8172161
60746 65996.466 18789.628 6177.5167 15289.636 -2.6339335999999998 1.1242333000000002 2.7823953
60746 66086.466 18550.641 6278.0560000000005 15538.463 -2.6767973 1.1099353 2.7469995
60746 66176.466 18307.821 6377.2982 15784.079 -2.7191078 1.095408 2.7110363000000004
60746 66266.466 18061.218 6475.2227 16026.433 -2.7608562 1.0806545 2.674513
60746 66356.466 17810.884000000002 6571.8093 16265.475 -2.8020340000000004 1.0656778 2.6374371
60746 66446.466 17556.869 6667.0381 16501.155 -2.8426326 1.050481 2.5998163
60746 66536.466 17299.227 6760.8893 16733.426 -2.8826437 1.0350672 2.5616585
60746 66626.466 17038.011 6853.3437 16962.238 -2.9220591 1.0194396000000001 2.5229715
60746 66716.466 16773.275 6944.3821 17187.545000000002 -2.9608705 1.0036014 2.4837632
60746 66806.466 16505.073 7033.9858 17409.3 -2.99907 0.98755602 2.4440419
60746 66896.466 16233.461000000001 7122.1361 17627.457000000002 -3.0366497 0.9713066300000001 2.4038156
60746 66986.466 15958.495 7208.8150000000005 17841.972 -3.0736018 0.95485663 2.3630928
60746 67076.466 15680.232 7294.004400000001 18052.8 -3.1099188 0.9382094200000001 2.3218818999999997
60746 67166.466 15398.729000000001 7377.6868 18259.896 -3.145593 0.9213684500000001 2.2801913
60746 67256.466 15114.044 7459.845 18463.22 -3.1806172000000004 0.90433718 2.2380297000000002
60746 67346.466 14826.237000000001 7540.4619 18662.728 -3.2149841 0.88711916 2.1954057
60746 67436.466 14535.367 7619.521 18858.379 -3.2486866 0.86971792 2.1523283
60746 67526.466 14241.494 7697.0058 19050.134000000002 -3.2817178 0.85213706 2.1088063000000004
60746 67616.466 13944.678 7772.9003 19237.951 -3.3140709000000004 0.8343802300000001 2.0648487
60746 67706.466 13644.982 7847.189 19421.794 -3.3457391 0.8164510800000001 2.0204646
60746 67796.466 13342.466 7919.8565 19601.622 -3.376716 0.79835332 1.9756631
60746 67886.466 13037.194 7990.8877 19777.401 -3.4069951 0.78009069 1.9304535
60746 67976.466 12729.228000000001 8060.268 19949.092 -3.4365702000000002 0.76166696 1.8848452
60746 68066.466 12418.632 8127.983 20116.661 -3.4654353 0.7430859400000001 1.8388476
60746 68156.466 12105.471 8194.0188 20280.073 -3.4935842 0.72435147 1.7924702000000001
60746 68246.466 11789.809000000001 8258.3618 20439.295000000002 -3.5210113 0.70546741 1.7457225
60746 68336.466 11471.711 8320.998599999999 20594.293 -3.5477109000000002 0.6864376600000001 1.6986142
60746 68426.466 11151.243 8381.9163 20745.035 -3.5736775 0.66726617 1.6511551
60746 68516.466 10828.471 8441.1024 20891.49 -3.5989056 0.64795688 1.603355
60746 68606.466 10503.462 8498.5445 21033.629 -3.6233902 0.62851378 1.5552237
60746 68696.466 10176.283 8554.231 21171.421000000002 -3.6471262 0.60894089 1.5067711
60746 68786.466 9847.0021 8608.150099999999 21304.838 -3.6701086000000003 0.58924226 1.4580073
60746 68876.466 9515.686599999999 8660.2909 21433.853 -3.6923327 0.56942194 1.4089424
60746 68966.466 9182.4051 8710.6426 21558.439000000002 -3.7137939 0.54948403 1.3595864999999998
60746 69056.466 8847.2267 8759.1946 21678.57 -3.7344879 0.5294326600000001 1.3099498
60746 69146.466 8510.2205 8805.9372 21794.222 -3.7544103 0.50927195 1.2600424000000001
60746 69236.466 8171.456099999999 8850.860400000001 21905.37 -3.773557 0.48900607 1.2098749
60746 69326.466 7831.0036 8893.9552 22011.992000000002 -3.7919241 0.46863921000000003 1.1594574
60746 69416.466 7488.9332 8935.212599999999 22114.065 -3.8095078 0.44817558 1.1088004
60746 69506.466 7145.3158 8974.624 22211.569 -3.8263045000000004 0.42761939000000004 1.0579143999999998
60746 69596.466 6800.2222 9012.181400000001 22304.483 -3.8423107 0.40697489000000003 1.0068099
60746 69686.466 6453.7237000000005 9047.877 22392.789 -3.857523 0.38624633999999997 0.95549743
60746 69776.466 6105.8919000000005 9081.7034 22476.467 -3.8719385 0.36543803 0.90398758
60746 69866.466 5756.7987 9113.6536 22555.501 -3.885554 0.34455424 0.852291
60746 69956.466 5406.5163 9143.721 22629.874 -3.8983667 0.32359930000000003 0.8004183500000001
60746 70046.466 5055.116900000001 9171.8995 22699.571 -3.9103741000000003 0.30257752 0.74838036
60746 70136.466 4702.6732 9198.1831 22764.578 -3.9215737 0.28149324000000003 0.69618777
60746 70226.466 4349.2579000000005 9222.5665 22824.881 -3.9319631 0.26035082 0.64385135
60746 70316.466 3994.9442000000004 9245.0446 22880.467 -3.9415402 0.23915463 0.59138191
60746 70406.466 3639.8051 9265.6128 22931.326 -3.950303 0.21790903 0.53879029
60746 70496.466 3283.9141 9284.2669 22977.446 -3.9582498 0.19661842 0.48608734
60746 70586.466 2927.3447 9301.002900000001 23018.818 -3.9653788 0.17528719 0.43328394
60746 70676.466 2570.1705 9315.817500000001 23055.434 -3.9716886000000002 0.15391974 0.38039100000000003
60746 70766.466 2212.4654 9328.7075 23087.286 -3.9771779 0.13252048 0.32741943
60746 70856.466 1854.3031 9339.6704 23114.368000000002 -3.9818456 0.11109383 0.27438018000000003
60746 70946.466 1495.7578 9348.7037 23136.673 -3.9856907 0.08964422000000001 0.22128420000000001
60746 71036.466 1136.9035000000001 9355.8058 23154.198 -3.9887124 0.068176068 0.16814244
60746 71126.466 777.8143100000001 9360.975 23166.938000000002 -3.99091 0.046693807999999996 0.11496588
60746 71216.466 418.56443 9364.2104 23174.891 -3.9922832 0.025201875000000002 0.061765508
60746 71306.466 59.22807100000001 9365.511199999999 23178.055 -3.9928317000000004 0.0037047067999999997 0.0085522943
60746 71396.466 -300.12052 9364.877199999999 23176.43 -3.9925552 -0.017793261 -0.044662768
60746 71486.466 -659.40712 9362.308500000001 23170.016 -3.9914539 -0.039287589 -0.09786869299999999
60746 71576.466 -1018.5575 9357.805699999999 23158.814000000002 -3.9895281000000002 -0.060773841 -0.15105448999999999
60746 71666.466 -1377.4974 9351.3696 23142.827 -3.9867779999999997 -0.082247581 -0.20420919
60746 71756.466 -1736.1528 9343.0016 23122.058 -3.9832043 -0.10370438 -0.2573218
60746 71846.466 -2094.4495 9332.7034 23096.511000000002 -3.9788076 -0.1251398 -0.31038137
60746 71936.466 -2452.3135 9320.4772 23066.191 -3.973589 -0.14654942 -0.36337694
60746 72026.466 -2809.6709 9306.3255 23031.105 -3.9675494 -0.16792882 -0.41629756
60746 72116.466 -3166.4478 9290.2511 22991.260000000002 -3.9606902 -0.1892736 -0.4691323
